{"type": "FeatureCollection", "features": [ {"type": "Feature", "properties": {"norad_id": 35111, "name": "FENGYUN 1C DEB", "group": "fengyun-1c-debris", "lat": 73.14826307267595, "lon": 24.808898530392284, "alt_km": 863.980962211007, "timestamp": "2025-12-05T22:40:48.837747+00:00", "meta": {"OBJECT_NAME": "FENGYUN 1C DEB", "OBJECT_ID": "1999-025DKP", "EPOCH": "2025-12-04T10:34:47.540928", "MEAN_MOTION": 14.10947082, "ECCENTRICITY": 0.0021503, "INCLINATION": 99.4671, "RA_OF_ASC_NODE": 56.651, "ARG_OF_PERICENTER": 243.8937, "MEAN_ANOMALY": 116.002, "EPHEMERIS_TYPE": 0, "CLASSIFICATION_TYPE": "U", "NORAD_CAT_ID": 35111, "ELEMENT_SET_NO": 999, "REV_AT_EPOCH": 64027, "BSTAR": 0.00084394, "MEAN_MOTION_DOT": 1.469e-05, "MEAN_MOTION_DDOT": 0}, "tle": {"line1": "1 35111U 99025DKP 25338.44082802  .00001469  00000+0  84394-3 0  9995", "line2": "2 35111  99.4671  56.6510 0021503 243.8937 116.0020 14.10947082640274"}}, "geometry": {"type": "Point", "coordinates": [24.808898530392284, 73.14826307267595]}}, {"type": "Feature", "properties": {"norad_id": 35116, "name": "FENGYUN 1C DEB", "group": "fengyun-1c-debris", "lat": -23.837402773672988, "lon": 29.86416142084386, "alt_km": 815.7164613317982, "timestamp": "2025-12-05T22:40:48.837757+00:00", "meta": {"OBJECT_NAME": "FENGYUN 1C DEB", "OBJECT_ID": "1999-025DKU", "EPOCH": "2025-11-29T08:23:15.339840", "MEAN_MOTION": 14.24983182, "ECCENTRICITY": 0.00599996, "INCLINATION": 98.6639, "RA_OF_ASC_NODE": 19.4914, "ARG_OF_PERICENTER": 87.929, "MEAN_ANOMALY": 272.8759, "EPHEMERIS_TYPE": 0, "CLASSIFICATION_TYPE": "U", "NORAD_CAT_ID": 35116, "ELEMENT_SET_NO": 999, "REV_AT_EPOCH": 59769, "BSTAR": 0.0010519384, "MEAN_MOTION_DOT": 2.465e-05, "MEAN_MOTION_DDOT": 0}, "tle": {"line1": "1 35116U 99025DKU 25333.34948310  .00002465  00000+0  10519-2 0  9993", "line2": "2 35116  98.6639  19.4914 0059999  87.9290 272.8759 14.24983182597691"}}, "geometry": {"type": "Point", "coordinates": [29.86416142084386, -23.837402773672988]}}, {"type": "Feature", "properties": {"norad_id": 35121, "name": "FENGYUN 1C DEB", "group": "fengyun-1c-debris", "lat": -65.56573340103361, "lon": -137.48627393899756, "alt_km": 999.0910960105684, "timestamp": "2025-12-05T22:40:48.837767+00:00", "meta": {"OBJECT_NAME": "FENGYUN 1C DEB", "OBJECT_ID": "1999-025DKZ", "EPOCH": "2025-11-23T20:23:41.984736", "MEAN_MOTION": 14.04733583, "ECCENTRICITY": 0.0157971, "INCLINATION": 98.3025, "RA_OF_ASC_NODE": 192.694, "ARG_OF_PERICENTER": 150.2058, "MEAN_ANOMALY": 210.8223, "EPHEMERIS_TYPE": 0, "CLASSIFICATION_TYPE": "U", "NORAD_CAT_ID": 35121, "ELEMENT_SET_NO": 999, "REV_AT_EPOCH": 60826, "BSTAR": 0.00039097454, "MEAN_MOTION_DOT": 6.63e-06, "MEAN_MOTION_DDOT": 0}, "tle": {"line1": "1 35121U 99025DKZ 25327.84979149  .00000663  00000+0  39097-3 0  9992", "line2": "2 35121  98.3025 192.6940 0157971 150.2058 210.8223 14.04733583608261"}}, "geometry": {"type": "Point", "coordinates": [-137.48627393899756, -65.56573340103361]}}, {"type": "Feature", "properties": {"norad_id": 35122, "name": "FENGYUN 1C DEB", "group": "fengyun-1c-debris", "lat": -14.802266805668118, "lon": 0.8704355509608087, "alt_km": 867.5327067474473, "timestamp": "2025-12-05T22:40:48.837777+00:00", "meta": {"OBJECT_NAME": "FENGYUN 1C DEB", "OBJECT_ID": "1999-025DLA", "EPOCH": "2025-12-02T08:08:45.964032", "MEAN_MOTION": 14.14105652, "ECCENTRICITY": 0.00248418, "INCLINATION": 98.6728, "RA_OF_ASC_NODE": 355.0598, "ARG_OF_PERICENTER": 187.1016, "MEAN_ANOMALY": 172.9809, "EPHEMERIS_TYPE": 0, "CLASSIFICATION_TYPE": "U", "NORAD_CAT_ID": 35122, "ELEMENT_SET_NO": 999, "REV_AT_EPOCH": 63720, "BSTAR": 0.00038355211, "MEAN_MOTION_DOT": 6.9e-06, "MEAN_MOTION_DDOT": 0}, "tle": {"line1": "1 35122U 99025DLA 25336.33942088  .00000690  00000+0  38355-3 0  9995", "line2": "2 35122  98.6728 355.0598 0024841 187.1016 172.9809 14.14105652637206"}}, "geometry": {"type": "Point", "coordinates": [0.8704355509608087, -14.802266805668118]}}, {"type": "Feature", "properties": {"norad_id": 35123, "name": "FENGYUN 1C DEB", "group": "fengyun-1c-debris", "lat": -71.26271562498812, "lon": -45.90801657870744, "alt_km": 851.6206656724062, "timestamp": "2025-12-05T22:40:48.837788+00:00", "meta": {"OBJECT_NAME": "FENGYUN 1C DEB", "OBJECT_ID": "1999-025DLB", "EPOCH": "2025-12-01T23:04:25.814496", "MEAN_MOTION": 14.24171122, "ECCENTRICITY": 0.00496834, "INCLINATION": 99.1234, "RA_OF_ASC_NODE": 158.2362, "ARG_OF_PERICENTER": 106.8047, "MEAN_ANOMALY": 253.8589, "EPHEMERIS_TYPE": 0, "CLASSIFICATION_TYPE": "U", "NORAD_CAT_ID": 35123, "ELEMENT_SET_NO": 999, "REV_AT_EPOCH": 60920, "BSTAR": 0.00063028249, "MEAN_MOTION_DOT": 1.423e-05, "MEAN_MOTION_DDOT": 0}, "tle": {"line1": "1 35123U 99025DLB 25335.96140989  .00001423  00000+0  63028-3 0  9994", "line2": "2 35123  99.1234 158.2362 0049683 106.8047 253.8589 14.24171122609209"}}, "geometry": {"type": "Point", "coordinates": [-45.90801657870744, -71.26271562498812]}}, {"type": "Feature", "properties": {"norad_id": 35125, "name": "FENGYUN 1C DEB", "group": "fengyun-1c-debris", "lat": 58.798971159684314, "lon": -174.8603781886104, "alt_km": 812.0640965243683, "timestamp": "2025-12-05T22:40:48.837798+00:00", "meta": {"OBJECT_NAME": "FENGYUN 1C DEB", "OBJECT_ID": "1999-025DLD", "EPOCH": "2025-12-02T18:42:43.848288", "MEAN_MOTION": 14.33013492, "ECCENTRICITY": 0.00523769, "INCLINATION": 98.2163, "RA_OF_ASC_NODE": 348.3348, "ARG_OF_PERICENTER": 324.6836, "MEAN_ANOMALY": 35.0884, "EPHEMERIS_TYPE": 0, "CLASSIFICATION_TYPE": "U", "NORAD_CAT_ID": 35125, "ELEMENT_SET_NO": 999, "REV_AT_EPOCH": 31139, "BSTAR": 0.0017995881, "MEAN_MOTION_DOT": 4.964e-05, "MEAN_MOTION_DDOT": 0}, "tle": {"line1": "1 35125U 99025DLD 25336.77967417  .00004964  00000+0  17996-2 0  9994", "line2": "2 35125  98.2163 348.3348 0052376 324.6836  35.0884 14.33013492311390"}}, "geometry": {"type": "Point", "coordinates": [-174.8603781886104, 58.798971159684314]}}, {"type": "Feature", "properties": {"norad_id": 35130, "name": "FENGYUN 1C DEB", "group": "fengyun-1c-debris", "lat": -70.08897907624332, "lon": -22.61620097673417, "alt_km": 584.2146453028645, "timestamp": "2025-12-05T22:40:48.837808+00:00", "meta": {"OBJECT_NAME": "FENGYUN 1C DEB", "OBJECT_ID": "1999-025DLJ", "EPOCH": "2025-12-03T19:51:08.700192", "MEAN_MOTION": 14.97420249, "ECCENTRICITY": 0.0006062, "INCLINATION": 99.0324, "RA_OF_ASC_NODE": 180.9884, "ARG_OF_PERICENTER": 103.2228, "MEAN_ANOMALY": 256.9666, "EPHEMERIS_TYPE": 0, "CLASSIFICATION_TYPE": "U", "NORAD_CAT_ID": 35130, "ELEMENT_SET_NO": 999, "REV_AT_EPOCH": 64780, "BSTAR": 0.011515, "MEAN_MOTION_DOT": 0.00136513, "MEAN_MOTION_DDOT": 0}, "tle": {"line1": "1 35130U 99025DLJ 25337.82718403  .00136513  00000+0  11515-1 0  9992", "line2": "2 35130  99.0324 180.9884 0006062 103.2228 256.9666 14.97420249647808"}}, "geometry": {"type": "Point", "coordinates": [-22.61620097673417, -70.08897907624332]}}, {"type": "Feature", "properties": {"norad_id": 35135, "name": "FENGYUN 1C DEB", "group": "fengyun-1c-debris", "lat": 77.95240652978804, "lon": -146.13714156315325, "alt_km": 861.9212195950322, "timestamp": "2025-12-05T22:40:48.837818+00:00", "meta": {"OBJECT_NAME": "FENGYUN 1C DEB", "OBJECT_ID": "1999-025DLP", "EPOCH": "2025-12-03T17:53:09.396960", "MEAN_MOTION": 14.22504735, "ECCENTRICITY": 0.00810975, "INCLINATION": 98.5651, "RA_OF_ASC_NODE": 346.8027, "ARG_OF_PERICENTER": 310.8519, "MEAN_ANOMALY": 48.5649, "EPHEMERIS_TYPE": 0, "CLASSIFICATION_TYPE": "U", "NORAD_CAT_ID": 35135, "ELEMENT_SET_NO": 999, "REV_AT_EPOCH": 87696, "BSTAR": 0.00070665093, "MEAN_MOTION_DOT": 1.587e-05, "MEAN_MOTION_DDOT": 0}, "tle": {"line1": "1 35135U 99025DLP 25337.74524765  .00001587  00000+0  70665-3 0  9999", "line2": "2 35135  98.5651 346.8027 0081097 310.8519  48.5649 14.22504735876960"}}, "geometry": {"type": "Point", "coordinates": [-146.13714156315325, 77.95240652978804]}}, {"type": "Feature", "properties": {"norad_id": 35139, "name": "FENGYUN 1C DEB", "group": "fengyun-1c-debris", "lat": -45.081845408368864, "lon": 156.64404653295472, "alt_km": 829.8658551312456, "timestamp": "2025-12-05T22:40:48.837829+00:00", "meta": {"OBJECT_NAME": "FENGYUN 1C DEB", "OBJECT_ID": "1999-025DLT", "EPOCH": "2025-11-29T06:46:18.583392", "MEAN_MOTION": 14.21054019, "ECCENTRICITY": 0.00685814, "INCLINATION": 98.5841, "RA_OF_ASC_NODE": 338.8823, "ARG_OF_PERICENTER": 336.9878, "MEAN_ANOMALY": 22.8231, "EPHEMERIS_TYPE": 0, "CLASSIFICATION_TYPE": "U", "NORAD_CAT_ID": 35139, "ELEMENT_SET_NO": 999, "REV_AT_EPOCH": 63962, "BSTAR": 0.00042081079, "MEAN_MOTION_DOT": 8.92e-06, "MEAN_MOTION_DDOT": 0}, "tle": {"line1": "1 35139U 99025DLT 25333.28215953  .00000892  00000+0  42081-3 0  9993", "line2": "2 35139  98.5841 338.8823 0068581 336.9878  22.8231 14.21054019639626"}}, "geometry": {"type": "Point", "coordinates": [156.64404653295472, -45.081845408368864]}}, {"type": "Feature", "properties": {"norad_id": 35140, "name": "FENGYUN 1C DEB", "group": "fengyun-1c-debris", "lat": -53.41390997000146, "lon": -26.851032477486523, "alt_km": 666.2541200687874, "timestamp": "2025-12-05T22:40:48.837839+00:00", "meta": {"OBJECT_NAME": "FENGYUN 1C DEB", "OBJECT_ID": "1999-025DLU", "EPOCH": "2025-12-03T05:01:54.884064", "MEAN_MOTION": 14.21319408, "ECCENTRICITY": 0.0291319, "INCLINATION": 98.4449, "RA_OF_ASC_NODE": 318.9832, "ARG_OF_PERICENTER": 354.4614, "MEAN_ANOMALY": 5.3364, "EPHEMERIS_TYPE": 0, "CLASSIFICATION_TYPE": "U", "NORAD_CAT_ID": 35140, "ELEMENT_SET_NO": 999, "REV_AT_EPOCH": 87143, "BSTAR": 0.00037772, "MEAN_MOTION_DOT": 1.218e-05, "MEAN_MOTION_DDOT": 0}, "tle": {"line1": "1 35140U 99025DLU 25337.20966301  .00001218  00000+0  37772-3 0  9995", "line2": "2 35140  98.4449 318.9832 0291319 354.4614   5.3364 14.21319408871436"}}, "geometry": {"type": "Point", "coordinates": [-26.851032477486523, -53.41390997000146]}}]}